[
  {
    "COMMENT": "GENERATED VIA SPACETRACK.ORG API",
    "ORIGINATOR": "18 SPCS",
    "NORAD_CAT_ID": "27386",
    "OBJECT_NAME": "ENVISAT",
    "OBJECT_TYPE": "PAYLOAD",
    "CLASSIFICATION_TYPE": "U",
    "INTLDES": "02009A",
    "EPOCH": "2023-05-14 04:30:08",
    "EPOCH_MICROSECONDS": "949312",
    "MEAN_MOTION": "14.38340191",
    "ECCENTRICITY": "0.0001257",
    "INCLINATION": "98.2285",
    "RA_OF_ASC_NODE": "105.5916",
    "ARG_OF_PERICENTER": "85.8569",
    "MEAN_ANOMALY": "284.8066",
    "EPHEMERIS_TYPE": "0",
    "ELEMENT_SET_NO": "999",
    "REV_AT_EPOCH": "11107",
    "BSTAR": "0.00012505",
    "MEAN_MOTION_DOT": "0.00000339",
    "MEAN_MOTION_DDOT": "0",
    "FILE": "3907330",
    "TLE_LINE0": "0 ENVISAT",
    "TLE_LINE1": "1 27386U 02009A   23134.18760358  .00000339  00000-0  12505-3 0  9999",
    "TLE_LINE2": "2 27386  98.2285 105.5916 0001257  85.8569 284.8066 14.38340191111073",
    "OBJECT_ID": "2002-009A",
    "OBJECT_NUMBER": "27386",
    "SEMIMAJOR_AXIS": "7142.125",
    "PERIOD": "100.115",
    "APOGEE": "764.887",
    "PERIGEE": "763.092",
    "DECAYED": "0"
  },
  {
    "COMMENT": "GENERATED VIA SPACETRACK.ORG API",
    "ORIGINATOR": "18 SPCS",
    "NORAD_CAT_ID": "27386",
    "OBJECT_NAME": "ENVISAT",
    "OBJECT_TYPE": "PAYLOAD",
    "CLASSIFICATION_TYPE": "U",
    "INTLDES": "02009A",
    "EPOCH": "2023-05-14 13:19:29",
    "EPOCH_MICROSECONDS": "133120",
    "MEAN_MOTION": "14.38340316",
    "ECCENTRICITY": "0.000126",
    "INCLINATION": "98.2285",
    "RA_OF_ASC_NODE": "105.9439",
    "ARG_OF_PERICENTER": "86.0228",
    "MEAN_ANOMALY": "26.9494",
    "EPHEMERIS_TYPE": "0",
    "ELEMENT_SET_NO": "999",
    "REV_AT_EPOCH": "11112",
    "BSTAR": "0.0001139",
    "MEAN_MOTION_DOT": "0.00000305",
    "MEAN_MOTION_DDOT": "0",
    "FILE": "3907650",
    "TLE_LINE0": "0 ENVISAT",
    "TLE_LINE1": "1 27386U 02009A   23134.55519830  .00000305  00000-0  11390-3 0  9991",
    "TLE_LINE2": "2 27386  98.2285 105.9439 0001260  86.0228  26.9494 14.38340316111121",
    "OBJECT_ID": "2002-009A",
    "OBJECT_NUMBER": "27386",
    "SEMIMAJOR_AXIS": "7142.124",
    "PERIOD": "100.115",
    "APOGEE": "764.889",
    "PERIGEE": "763.089",
    "DECAYED": "0"
  },
  {
    "COMMENT": "GENERATED VIA SPACETRACK.ORG API",
    "ORIGINATOR": "18 SPCS",
    "NORAD_CAT_ID": "27386",
    "OBJECT_NAME": "ENVISAT",
    "OBJECT_TYPE": "PAYLOAD",
    "CLASSIFICATION_TYPE": "U",
    "INTLDES": "02009A",
    "EPOCH": "2023-05-14 21:23:56",
    "EPOCH_MICROSECONDS": "342976",
    "MEAN_MOTION": "14.38340527",
    "ECCENTRICITY": "0.000125",
    "INCLINATION": "98.2285",
    "RA_OF_ASC_NODE": "106.2665",
    "ARG_OF_PERICENTER": "86.0727",
    "MEAN_ANOMALY": "327.9103",
    "EPHEMERIS_TYPE": "0",
    "ELEMENT_SET_NO": "999",
    "REV_AT_EPOCH": "11110",
    "BSTAR": "0.00010913",
    "MEAN_MOTION_DOT": "0.00000291",
    "MEAN_MOTION_DDOT": "0",
    "FILE": "3908005",
    "TLE_LINE0": "0 ENVISAT",
    "TLE_LINE1": "1 27386U 02009A   23134.89162434  .00000291  00000-0  10913-3 0  9996",
    "TLE_LINE2": "2 27386  98.2285 106.2665 0001250  86.0727 327.9103 14.38340527111102",
    "OBJECT_ID": "2002-009A",
    "OBJECT_NUMBER": "27386",
    "SEMIMAJOR_AXIS": "7142.124",
    "PERIOD": "100.115",
    "APOGEE": "764.881",
    "PERIGEE": "763.096",
    "DECAYED": "0"
  },
  {
    "COMMENT": "GENERATED VIA SPACETRACK.ORG API",
    "ORIGINATOR": "18 SPCS",
    "NORAD_CAT_ID": "27386",
    "OBJECT_NAME": "ENVISAT",
    "OBJECT_TYPE": "PAYLOAD",
    "CLASSIFICATION_TYPE": "U",
    "INTLDES": "02009A",
    "EPOCH": "2023-05-14 23:07:57",
    "EPOCH_MICROSECONDS": "707040",
    "MEAN_MOTION": "14.38340595",
    "ECCENTRICITY": "0.0001246",
    "INCLINATION": "98.2285",
    "RA_OF_ASC_NODE": "106.3357",
    "ARG_OF_PERICENTER": "85.9341",
    "MEAN_ANOMALY": "341.8821",
    "EPHEMERIS_TYPE": "0",
    "ELEMENT_SET_NO": "999",
    "REV_AT_EPOCH": "11118",
    "BSTAR": "0.00010906",
    "MEAN_MOTION_DOT": "0.00000291",
    "MEAN_MOTION_DDOT": "0",
    "FILE": "3907904",
    "TLE_LINE0": "0 ENVISAT",
    "TLE_LINE1": "1 27386U 02009A   23134.96386235  .00000291  00000-0  10906-3 0  9993",
    "TLE_LINE2": "2 27386  98.2285 106.3357 0001246  85.9341 341.8821 14.38340595111181",
    "OBJECT_ID": "2002-009A",
    "OBJECT_NUMBER": "27386",
    "SEMIMAJOR_AXIS": "7142.123",
    "PERIOD": "100.115",
    "APOGEE": "764.878",
    "PERIGEE": "763.098",
    "DECAYED": "0"
  },
  {
    "COMMENT": "GENERATED VIA SPACETRACK.ORG API",
    "ORIGINATOR": "18 SPCS",
    "NORAD_CAT_ID": "27386",
    "OBJECT_NAME": "ENVISAT",
    "OBJECT_TYPE": "PAYLOAD",
    "CLASSIFICATION_TYPE": "U",
    "INTLDES": "02009A",
    "EPOCH": "2023-05-15 03:52:38",
    "EPOCH_MICROSECONDS": "944704",
    "MEAN_MOTION": "14.38340755",
    "ECCENTRICITY": "0.0001249",
    "INCLINATION": "98.2286",
    "RA_OF_ASC_NODE": "106.5252",
    "ARG_OF_PERICENTER": "86.0558",
    "MEAN_ANOMALY": "284.8588",
    "EPHEMERIS_TYPE": "0",
    "ELEMENT_SET_NO": "999",
    "REV_AT_EPOCH": "11121",
    "BSTAR": "0.0001105",
    "MEAN_MOTION_DOT": "0.00000295",
    "MEAN_MOTION_DDOT": "0",
    "FILE": "3908197",
    "TLE_LINE0": "0 ENVISAT",
    "TLE_LINE1": "1 27386U 02009A   23135.16156186  .00000295  00000-0  11050-3 0  9991",
    "TLE_LINE2": "2 27386  98.2286 106.5252 0001249  86.0558 284.8588 14.38340755111211",
    "OBJECT_ID": "2002-009A",
    "OBJECT_NUMBER": "27386",
    "SEMIMAJOR_AXIS": "7142.123",
    "PERIOD": "100.115",
    "APOGEE": "764.880",
    "PERIGEE": "763.096",
    "DECAYED": "0"
  },
  {
    "COMMENT": "GENERATED VIA SPACETRACK.ORG API",
    "ORIGINATOR": "18 SPCS",
    "NORAD_CAT_ID": "27386",
    "OBJECT_NAME": "ENVISAT",
    "OBJECT_TYPE": "PAYLOAD",
    "CLASSIFICATION_TYPE": "U",
    "INTLDES": "02009A",
    "EPOCH": "2023-05-15 12:41:08",
    "EPOCH_MICROSECONDS": "875680",
    "MEAN_MOTION": "14.3834101",
    "ECCENTRICITY": "0.0001256",
    "INCLINATION": "98.2286",
    "RA_OF_ASC_NODE": "106.877",
    "ARG_OF_PERICENTER": "86.147",
    "MEAN_ANOMALY": "24.0675",
    "EPHEMERIS_TYPE": "0",
    "ELEMENT_SET_NO": "999",
    "REV_AT_EPOCH": "11126",
    "BSTAR": "0.00010751",
    "MEAN_MOTION_DOT": "0.00000286",
    "MEAN_MOTION_DDOT": "0",
    "FILE": "3908506",
    "TLE_LINE0": "0 ENVISAT",
    "TLE_LINE1": "1 27386U 02009A   23135.52857495  .00000286  00000-0  10751-3 0  9999",
    "TLE_LINE2": "2 27386  98.2286 106.8770 0001256  86.1470  24.0675 14.38341010111262",
    "OBJECT_ID": "2002-009A",
    "OBJECT_NUMBER": "27386",
    "SEMIMAJOR_AXIS": "7142.122",
    "PERIOD": "100.115",
    "APOGEE": "764.884",
    "PERIGEE": "763.090",
    "DECAYED": "0"
  },
  {
    "COMMENT": "GENERATED VIA SPACETRACK.ORG API",
    "ORIGINATOR": "18 SPCS",
    "NORAD_CAT_ID": "27386",
    "OBJECT_NAME": "ENVISAT",
    "OBJECT_TYPE": "PAYLOAD",
    "CLASSIFICATION_TYPE": "U",
    "INTLDES": "02009A",
    "EPOCH": "2023-05-15 12:41:08",
    "EPOCH_MICROSECONDS": "875680",
    "MEAN_MOTION": "14.3834101",
    "ECCENTRICITY": "0.0001256",
    "INCLINATION": "98.2286",
    "RA_OF_ASC_NODE": "106.877",
    "ARG_OF_PERICENTER": "86.147",
    "MEAN_ANOMALY": "24.0675",
    "EPHEMERIS_TYPE": "0",
    "ELEMENT_SET_NO": "999",
    "REV_AT_EPOCH": "11119",
    "BSTAR": "0.00010751",
    "MEAN_MOTION_DOT": "0.00000286",
    "MEAN_MOTION_DDOT": "0",
    "FILE": "3908681",
    "TLE_LINE0": "0 ENVISAT",
    "TLE_LINE1": "1 27386U 02009A   23135.52857495  .00000286  00000-0  10751-3 0  9999",
    "TLE_LINE2": "2 27386  98.2286 106.8770 0001256  86.1470  24.0675 14.38341010111194",
    "OBJECT_ID": "2002-009A",
    "OBJECT_NUMBER": "27386",
    "SEMIMAJOR_AXIS": "7142.122",
    "PERIOD": "100.115",
    "APOGEE": "764.884",
    "PERIGEE": "763.090",
    "DECAYED": "0"
  },
  {
    "COMMENT": "GENERATED VIA SPACETRACK.ORG API",
    "ORIGINATOR": "18 SPCS",
    "NORAD_CAT_ID": "27386",
    "OBJECT_NAME": "ENVISAT",
    "OBJECT_TYPE": "PAYLOAD",
    "CLASSIFICATION_TYPE": "U",
    "INTLDES": "02009A",
    "EPOCH": "2023-05-15 16:18:54",
    "EPOCH_MICROSECONDS": "904896",
    "MEAN_MOTION": "14.38341099",
    "ECCENTRICITY": "0.0001256",
    "INCLINATION": "98.2286",
    "RA_OF_ASC_NODE": "107.022",
    "ARG_OF_PERICENTER": "86.3597",
    "MEAN_ANOMALY": "86.4586",
    "EPHEMERIS_TYPE": "0",
    "ELEMENT_SET_NO": "999",
    "REV_AT_EPOCH": "11128",
    "BSTAR": "0.00010643",
    "MEAN_MOTION_DOT": "0.00000283",
    "MEAN_MOTION_DDOT": "0",
    "FILE": "3908809",
    "TLE_LINE0": "0 ENVISAT",
    "TLE_LINE1": "1 27386U 02009A   23135.67980214  .00000283  00000-0  10643-3 0  9998",
    "TLE_LINE2": "2 27386  98.2286 107.0220 0001256  86.3597  86.4586 14.38341099111289",
    "OBJECT_ID": "2002-009A",
    "OBJECT_NUMBER": "27386",
    "SEMIMAJOR_AXIS": "7142.122",
    "PERIOD": "100.115",
    "APOGEE": "764.884",
    "PERIGEE": "763.090",
    "DECAYED": "0"
  },
  {
    "COMMENT": "GENERATED VIA SPACETRACK.ORG API",
    "ORIGINATOR": "18 SPCS",
    "NORAD_CAT_ID": "27386",
    "OBJECT_NAME": "ENVISAT",
    "OBJECT_TYPE": "PAYLOAD",
    "CLASSIFICATION_TYPE": "U",
    "INTLDES": "02009A",
    "EPOCH": "2023-05-15 16:18:54",
    "EPOCH_MICROSECONDS": "904896",
    "MEAN_MOTION": "14.38341099",
    "ECCENTRICITY": "0.0001256",
    "INCLINATION": "98.2286",
    "RA_OF_ASC_NODE": "107.022",
    "ARG_OF_PERICENTER": "86.3597",
    "MEAN_ANOMALY": "86.4586",
    "EPHEMERIS_TYPE": "0",
    "ELEMENT_SET_NO": "999",
    "REV_AT_EPOCH": "11121",
    "BSTAR": "0.00010643",
    "MEAN_MOTION_DOT": "0.00000283",
    "MEAN_MOTION_DDOT": "0",
    "FILE": "3908892",
    "TLE_LINE0": "0 ENVISAT",
    "TLE_LINE1": "1 27386U 02009A   23135.67980214  .00000283  00000-0  10643-3 0  9998",
    "TLE_LINE2": "2 27386  98.2286 107.0220 0001256  86.3597  86.4586 14.38341099111212",
    "OBJECT_ID": "2002-009A",
    "OBJECT_NUMBER": "27386",
    "SEMIMAJOR_AXIS": "7142.122",
    "PERIOD": "100.115",
    "APOGEE": "764.884",
    "PERIGEE": "763.090",
    "DECAYED": "0"
  }
]